QIANFAN-9               
1 60387U 24140J   25292.02484287  .00000082  00000+0  10782-3 0  9990
2 60387  88.9743 305.0098 0016250   3.4189 356.7070 13.50974149 59947
QIANFAN-10              
1 60388U 24140K   25291.95494385  .00000069  00000+0  87960-4 0  9990
2 60388  88.9751 304.3589 0013914 341.3188  18.7450 13.50970838 60064
QIANFAN-11              
1 60389U 24140L   25291.99192983  .00000063  00000+0  79431-4 0  9992
2 60389  88.9678 304.9831 0014283   4.2605 355.8665 13.50971485 59721
QIANFAN-12              
1 60390U 24140M   25292.01245382  .00000082  00000+0  10911-3 0  9998
2 60390  88.9721 305.0005 0013424  12.9832 347.1662 13.50971929 59859
QIANFAN-13              
1 60391U 24140N   25291.98366940  .00000062  00000+0  77208-4 0  9999
2 60391  88.9734 305.0967 0013353  15.7472 344.4092 13.50972031 59877
QIANFAN-14              
1 60392U 24140P   25292.00826477  .00000077  00000+0  10109-3 0  9992
2 60392  88.9713 305.0034 0016993  13.6254 346.5352 13.50972530 59885
QIANFAN-15              
1 60393U 24140Q   25292.01647566  .00000078  00000+0  10237-3 0  9997
2 60393  88.9734 304.9460 0012330   2.5433 357.5779 13.50976386 59874
QIANFAN-16              
1 60394U 24140R   25292.00430909  .00000058  00000+0  71739-4 0  9991
2 60394  88.9739 305.0658 0015088  18.3956 341.7738 13.50971449 59784
